NORAD_CAT_ID,OBJECT_NAME,OBJECT_TYPE,EPOCH,MEAN_MOTION,ECCENTRICITY,INCLINATION,RA_OF_ASC_NODE,ARG_OF_PERICENTER,MEAN_ANOMALY,BSTAR,MEAN_MOTION_DOT,MEAN_MOTION_DDOT,TLE_LINE0,TLE_LINE1,TLE_LINE2,SEMIMAJOR_AXIS,PERIOD,APOGEE,PERIGEE,DECAYED
51969.0,STARLINK-3680,PAYLOAD,2024-05-17 05:35:06,15.06400029,0.0001377,53.053,116.0347,99.048,261.0665,1.419e-05,-7e-07,0.0,0 STARLINK-3680,1 51969U 22025P   24138.23271189 -.00000070  00000-0  14190-4 0  9999,2 51969  53.0530 116.0347 0001377  99.0480 261.0665 15.06400029121274,6925.348,95.592,548.167,546.26,0.0
51969.0,STARLINK-3680,PAYLOAD,2024-05-17 21:30:30,15.06396787,0.0001779,53.0535,113.0554,92.9624,267.1568,0.00012737,1.616e-05,0.0,0 STARLINK-3680,1 51969U 22025P   24138.89618706  .00001616  00000-0  12737-3 0  9991,2 51969  53.0535 113.0554 0001779  92.9624 267.1568 15.06396787121379,6925.358,95.592,548.455,545.991,0.0
51969.0,STARLINK-3680,PAYLOAD,2024-05-18 05:28:12,15.06399091,0.0001546,53.0537,111.5665,86.1559,273.9607,0.00024029,3.299e-05,0.0,0 STARLINK-3680,1 51969U 22025P   24139.22792206  .00003299  00000-0  24029-3 0  9993,2 51969  53.0537 111.5665 0001546  86.1559 273.9607 15.06399091122530,6925.351,95.592,548.287,546.146,0.0
51969.0,STARLINK-3680,PAYLOAD,2024-05-18 15:01:26,15.06397184,0.0001192,53.0519,109.7777,91.5221,268.5905,0.00025301,3.489e-05,0.0,0 STARLINK-3680,1 51969U 22025P   24139.62600371  .00003489  00000-0  25301-3 0  9993,2 51969  53.0519 109.7777 0001192  91.5221 268.5905 15.06397184121481,6925.357,95.592,548.048,546.397,0.0
51969.0,STARLINK-3680,PAYLOAD,2024-05-19 03:45:46,15.0639242,0.0001655,53.054,107.396,94.6821,265.4357,9.7636e-05,1.173e-05,0.0,0 STARLINK-3680,1 51969U 22025P   24140.15678323  .00001173  00000-0  97636-4 0  9994,2 51969  53.0540 107.3960 0001655  94.6821 265.4357 15.06392420122674,6925.372,95.593,548.383,546.091,0.0
51969.0,STARLINK-3680,PAYLOAD,2024-05-19 06:56:50,15.06399505,0.0001499,53.0531,106.8005,94.2346,265.8814,0.00020941,2.839e-05,0.0,0 STARLINK-3680,1 51969U 22025P   24140.28947427  .00002839  00000-0  20941-3 0  9996,2 51969  53.0531 106.8005 0001499  94.2346 265.8814 15.06399505121584,6925.35,95.592,548.253,546.177,0.0
51969.0,STARLINK-3680,PAYLOAD,2024-05-20 05:14:23,15.06402209,0.0001493,53.0531,102.6304,92.5157,267.6003,0.00024311,3.342e-05,0.0,0 STARLINK-3680,1 51969U 22025P   24141.21833241  .00003342  00000-0  24311-3 0  9993,2 51969  53.0531 102.6304 0001493  92.5157 267.6003 15.06402209122830,6925.342,95.592,548.241,546.173,0.0
51969.0,STARLINK-3680,PAYLOAD,2024-05-20 06:49:56,15.06405364,0.0001398,53.0528,102.3317,95.9718,264.1431,0.00032094,4.503e-05,0.0,0 STARLINK-3680,1 51969U 22025P   24141.28467652  .00004503  00000-0  32094-3 0  9996,2 51969  53.0528 102.3317 0001398  95.9718 264.1431 15.06405364121731,6925.332,95.592,548.165,546.229,0.0
51969.0,STARLINK-3680,PAYLOAD,2024-05-21 06:43:01,15.06414591,0.0001479,53.0527,97.8616,107.4379,252.6772,0.00034818,4.91e-05,0.0,0 STARLINK-3680,1 51969U 22025P   24142.27987359  .00004910  00000-0  34818-3 0  9995,2 51969  53.0527  97.8616 0001479 107.4379 252.6772 15.06414591122993,6925.304,95.591,548.193,546.145,0.0
51969.0,STARLINK-3680,PAYLOAD,2024-05-21 21:02:52,15.0640053,0.0001455,53.0533,95.1823,92.2711,267.8444,-2.6975e-05,-6.83e-06,0.0,0 STARLINK-3680,1 51969U 22025P   24142.87699943 -.00000683  00000-0 -26975-4 0  9991,2 51969  53.0533  95.1823 0001455  92.2711 267.8444 15.06400530123089,6925.347,95.592,548.22,546.204,0.0
51969.0,STARLINK-3680,PAYLOAD,2024-05-22 06:36:06,15.06405418,0.0001456,53.0538,93.3954,102.3752,257.74,5.4056e-05,5.24e-06,0.0,0 STARLINK-3680,1 51969U 22025P   24143.27507686  .00000524  00000-0  54056-4 0  9991,2 51969  53.0538  93.3954 0001456 102.3752 257.7400 15.06405418122032,6925.332,95.592,548.205,546.189,0.0
51969.0,STARLINK-3680,PAYLOAD,2024-05-22 20:55:58,15.06396081,0.0001371,53.0536,90.7114,101.5928,258.5215,-0.00011066,-1.929e-05,0.0,0 STARLINK-3680,1 51969U 22025P   24143.87220304 -.00001929  00000-0 -11066-3 0  9991,2 51969  53.0536  90.7114 0001371 101.5928 258.5215 15.06396081122129,6925.361,95.592,548.175,546.276,0.0
51969.0,STARLINK-3680,PAYLOAD,2024-05-23 01:42:35,15.06398624,0.0001584,53.0541,89.818,108.1381,251.978,-5.7996e-05,-1.145e-05,0.0,0 STARLINK-3680,1 51969U 22025P   24144.07124219 -.00001145  00000-0 -57996-4 0  9995,2 51969  53.0541  89.8180 0001584 108.1381 251.9780 15.06398624123264,6925.353,95.592,548.315,546.121,0.0
51969.0,STARLINK-3680,PAYLOAD,2024-05-23 20:49:05,15.06382084,0.0001602,53.0546,86.2484,102.0011,258.1158,-0.00012865,-2.196e-05,0.0,0 STARLINK-3680,1 51969U 22025P   24144.86742033 -.00002196  00000-0 -12865-3 0  9994,2 51969  53.0546  86.2484 0001602 102.0011 258.1158 15.06382084123385,6925.403,95.593,548.378,546.159,0.0
51969.0,STARLINK-3680,PAYLOAD,2024-05-24 04:47:00,15.06127277,0.0001623,53.054,84.7581,80.498,279.6192,-0.0037384,-0.0005513,0.0,0 STARLINK-3680,1 51969U 22025P   24145.19931357 -.00055130  00000-0 -37384-2 0  9998,2 51969  53.0540  84.7581 0001623  80.4980 279.6192 15.06127277123430,6926.185,95.609,549.174,546.925,0.0
51969.0,STARLINK-3680,PAYLOAD,2024-05-25 04:40:52,15.05870857,0.0001512,53.0548,80.302,86.9868,273.1294,-0.0036737,-0.00053818,0.0,0 STARLINK-3680,1 51969U 22025P   24146.19504823 -.00053818  00000-0 -36737-2 0  9995,2 51969  53.0548  80.3020 0001512  86.9868 273.1294 15.05870857123587,6926.971,95.626,549.883,547.788,0.0
51969.0,STARLINK-3680,PAYLOAD,2024-05-25 12:38:47,15.05813069,0.0001779,53.0548,78.8076,108.0027,252.1156,-0.0037272,-0.00054508,0.0,0 STARLINK-3680,1 51969U 22025P   24146.52693582 -.00054508  00000-0 -37272-2 0  9995,2 51969  53.0548  78.8076 0001779 108.0027 252.1156 15.05813069123630,6927.148,95.629,550.245,547.781,0.0
51969.0,STARLINK-3680,PAYLOAD,2024-05-26 04:34:33,15.05750941,0.0001453,53.0553,75.8312,90.9811,269.1345,-0.0022822,-0.00033526,0.0,0 STARLINK-3680,1 51969U 22025P   24147.19066780 -.00033526  00000-0 -22822-2 0  9995,2 51969  53.0553  75.8312 0001453  90.9811 269.1345 15.05750941123733,6927.339,95.633,550.21,548.197,0.0
51969.0,STARLINK-3680,PAYLOAD,2024-05-26 10:56:56,15.05684247,0.000142,53.055,74.6389,95.9657,264.1493,-0.0015174,-0.0002238,0.0,0 STARLINK-3680,1 51969U 22025P   24147.45620455 -.00022380  00000-0 -15174-2 0  9997,2 51969  53.0550  74.6389 0001420  95.9657 264.1493 15.05684247123776,6927.543,95.638,550.392,548.424,0.0
51969.0,STARLINK-3680,PAYLOAD,2024-05-26 18:54:56,15.05565625,0.000137,53.0558,73.1533,98.8175,261.2969,8.6526e-05,9.81e-06,0.0,0 STARLINK-3680,1 51969U 22025P   24147.78815290  .00000981  00000-0  86526-4 0  9998,2 51969  53.0558  73.1533 0001370  98.8175 261.2969 15.05565625123820,6927.907,95.645,550.721,548.823,0.0
51969.0,STARLINK-3680,PAYLOAD,2024-05-27 06:00:00,15.05562399,0.0001509,53.0537,71.0851,82.8863,261.9705,0.0021784,0.00031586,0.0,0 STARLINK-3680,1 51969U 22025P   24148.25001157  .00031586  00000-0  21784-2 0  9998,2 51969  53.0537  71.0851 0001509  82.8863 261.9705 15.05562399123895,6927.917,95.645,550.827,548.736,0.0
51969.0,STARLINK-3680,PAYLOAD,2024-05-27 14:00:01,15.05563071,0.0001466,53.0539,69.5888,93.9521,258.5989,0.003261,0.00047531,0.0,0 STARLINK-3680,1 51969U 22025P   24148.58334491  .00047531  00000-0  32610-2 0  9991,2 51969  53.0539  69.5888 0001466  93.9521 258.5989 15.05563071  5854,6927.915,95.645,550.795,548.764,0.0
51969.0,STARLINK-3680,PAYLOAD,2024-05-27 22:00:00,15.05628031,0.0001444,53.0541,68.095,92.0399,268.1939,-0.00428,-0.00062173,0.0,0 STARLINK-3680,1 51969U 22025P   24148.91667824 -.00062173  00000-0 -42800-2 0  9990,2 51969  53.0541  68.0950 0001444  92.0399 268.1939 15.05628031  5793,6927.716,95.641,550.581,548.58,0.0
51969.0,STARLINK-3680,PAYLOAD,2024-05-28 04:22:20,15.05594184,0.0001499,53.0551,66.9039,94.9946,265.1214,7.5839e-05,8.26e-06,0.0,0 STARLINK-3680,1 51969U 22025P   24149.18217644  .00000826  00000-0  75839-4 0  9996,2 51969  53.0551  66.9039 0001499  94.9946 265.1214 15.05594184124031,6927.819,95.643,550.723,548.646,0.0
51969.0,STARLINK-3680,PAYLOAD,2024-05-28 21:53:51,15.05575192,0.0001913,53.0542,63.6223,126.9602,233.1562,0.00010195,1.206e-05,0.0,0 STARLINK-3680,1 51969U 22025P   24149.91239678  .00001206  00000-0  10195-3 0  9994,2 51969  53.0542  63.6223 0001913 126.9602 233.1562 15.05575192123034,6927.878,95.645,551.068,548.417,0.0
51969.0,STARLINK-3680,PAYLOAD,2024-05-29 04:16:12,15.05582022,0.0001445,53.0557,62.4374,107.1223,252.9924,2.0464e-05,1.9e-07,0.0,0 STARLINK-3680,1 51969U 22025P   24150.17792734  .00000019  00000-0  20464-4 0  9993,2 51969  53.0557  62.4374 0001445 107.1223 252.9924 15.05582022124182,6927.857,95.644,550.723,548.721,0.0
51969.0,STARLINK-3680,PAYLOAD,2024-05-29 21:47:43,15.05587055,0.0001445,53.0561,59.1609,109.308,250.8065,-2.5416e-05,-6.5e-06,0.0,0 STARLINK-3680,1 51969U 22025P   24150.90813785 -.00000650  00000-0 -25416-4 0  9999,2 51969  53.0561  59.1609 0001445 109.3080 250.8065 15.05587055123189,6927.841,95.644,550.707,548.705,0.0
51969.0,STARLINK-3680,PAYLOAD,2024-05-29 23:23:18,15.05589583,0.0001368,53.0564,58.863,104.6317,255.4824,-4.6836e-05,-9.62e-06,0.0,0 STARLINK-3680,1 51969U 22025P   24150.97451983 -.00000962  00000-0 -46836-4 0  9999,2 51969  53.0564  58.8630 0001368 104.6317 255.4824 15.05589583123190,6927.833,95.644,550.646,548.751,0.0
51969.0,STARLINK-3680,PAYLOAD,2024-05-30 21:41:34,15.05585961,0.0001348,53.0564,54.6981,102.4726,257.6413,0.00012134,1.489e-05,0.0,0 STARLINK-3680,1 51969U 22025P   24151.90387678  .00001489  00000-0  12134-3 0  9998,2 51969  53.0564  54.6981 0001348 102.4726 257.6413 15.05585961123331,6927.845,95.644,550.643,548.776,0.0
51969.0,STARLINK-3680,PAYLOAD,2024-05-31 02:28:20,15.05590667,0.0001548,53.057,53.8053,113.9134,246.2017,0.00016882,2.182e-05,0.0,0 STARLINK-3680,1 51969U 22025P   24152.10302020  .00002182  00000-0  16882-3 0  9994,2 51969  53.0570  53.8053 0001548 113.9134 246.2017 15.05590667124470,6927.83,95.644,550.768,548.623,0.0
